[{"OBJECT_NAME":"STARLINK-5332","OBJECT_ID":"2023-010S","EPOCH":"2026-03-09T22:54:58.332384","MEAN_MOTION":14.9832634,"ECCENTRICITY":0.00026497,"INCLINATION":70.0033,"RA_OF_ASC_NODE":3.7143,"ARG_OF_PERICENTER":266.7398,"MEAN_ANOMALY":93.3458,"EPHEMERIS_TYPE":0,"CLASSIFICATION_TYPE":"U","NORAD_CAT_ID":55285,"ELEMENT_SET_NO":999,"REV_AT_EPOCH":17468,"BSTAR":0.00037084989,"MEAN_MOTION_DOT":4.334e-5,"MEAN_MOTION_DDOT":0},{"OBJECT_NAME":"KUIPER-00106","OBJECT_ID":"2025-171N","EPOCH":"2026-03-09T10:38:15.017568","MEAN_MOTION":14.97188469,"ECCENTRICITY":0.00079317,"INCLINATION":51.8933,"RA_OF_ASC_NODE":156.0933,"ARG_OF_PERICENTER":97.4823,"MEAN_ANOMALY":262.7049,"EPHEMERIS_TYPE":0,"CLASSIFICATION_TYPE":"U","NORAD_CAT_ID":65144,"ELEMENT_SET_NO":999,"REV_AT_EPOCH":3290,"BSTAR":0.00038673669,"MEAN_MOTION_DOT":4.265e-5,"MEAN_MOTION_DDOT":0}]
